QIANFAN-86              
1 63172U 25046P   26073.91334276  .00000141  00000+0  20008-3 0  9997
2 63172  88.9746 310.2634 0009552 219.9765 140.0684 13.51004239 59995
QIANFAN-87              
1 63173U 25046Q   26073.88456520  .00000140  00000+0  19856-3 0  9999
2 63173  88.9742 310.3745 0010329 214.8170 145.2306 13.51012714 59922
QIANFAN-88              
1 63174U 25046R   26073.90096796  .00000151  00000+0  21477-3 0  9992
2 63174  88.9745 310.3297 0010560 224.3487 135.6819 13.51000885 59953
QIANFAN-89              
1 63175U 25046S   26073.93808969  .00000147  00000+0  20871-3 0  9991
2 63175  88.9745 310.5150 0015216 215.1273 144.8876 13.51011403 59850
QIANFAN-90              
1 63176U 25046T   26073.89285982  .00000168  00000+0  24078-3 0  9997
2 63176  88.9745 310.4921 0012197 212.4942 147.5460 13.51011697 59869
QIANFAN-91              
1 66033U 25233A   26073.92542758  .00000062  00000+0  77202-4 0  9992
2 66033  88.9944  52.7149 0002088  91.0690 269.0700 13.51005219 20455
QIANFAN-92              
1 66034U 25233B   26073.93358521  .00000051  00000+0  60705-4 0  9995
2 66034  88.9928  52.7012 0001998  85.3758 274.7622 13.51006422 20450
QIANFAN-93              
1 66035U 25233C   26073.94182436  .00000058  00000+0  71282-4 0  9996
2 66035  88.9955  52.7267 0002043  89.7036 270.4350 13.51005665 20451
QIANFAN-94              
1 66036U 25233D   26073.92941180  .00000052  00000+0  61646-4 0  9991
2 66036  88.9952  52.6344 0002128  85.9756 274.1638 13.50992547 20504
QIANFAN-95              
1 66037U 25233E   26073.93750608  .00000058  00000+0  71576-4 0  9995
2 66037  88.9949  52.1797 0002219  90.2930 269.8475 13.51016006 20757
QIANFAN-96              
1 66038U 25233F   26073.88838151  .00000063  00000+0  79205-4 0  9993
2 66038  88.9946  52.7303 0002125  92.8328 267.3066 13.51005337 20449
QIANFAN-97              
1 66039U 25233G   26073.94597618  .00000054  00000+0  65798-4 0  9993
2 66039  88.9950  52.7054 0002080  90.7007 269.4383 13.51004743 20466
QIANFAN-98              
1 66040U 25233H   26073.95414838  .00000059  00000+0  72207-4 0  9996
2 66040  88.9939  52.4458 0002456  79.5889 280.5539 13.51005399 20601
QIANFAN-99              
1 66041U 25233J   26073.88424647  .00000062  00000+0  77504-4 0  9997
2 66041  88.9950  52.7151 0002396  84.1054 276.0370 13.51005481 20455
QIANFAN-100             
1 66042U 25233K   26073.95004608  .00000050  00000+0  59592-4 0  9991
2 66042  88.9962  52.6250 0002051  90.4099 269.7287 13.51006378 20514
QIANFAN-101             
1 66043U 25233L   26073.89562106  .00000636  00000+0  25661-3 0  9996
2 66043  88.9951  51.3837 0017317  92.3755 267.9422 14.26747047 21184
QIANFAN-102             
1 66044U 25233M   26073.89651627  .00000070  00000+0  89156-4 0  9996
2 66044  88.9948  52.6258 0002178  86.1446 273.9954 13.50993274 20502
