[{"OBJECT_NAME":"QIANFAN-86","OBJECT_ID":"2025-046P","EPOCH":"2026-03-14T21:55:12.814464","MEAN_MOTION":13.51004239,"ECCENTRICITY":0.00095526,"INCLINATION":88.9746,"RA_OF_ASC_NODE":310.2634,"ARG_OF_PERICENTER":219.9765,"MEAN_ANOMALY":140.0684,"EPHEMERIS_TYPE":0,"CLASSIFICATION_TYPE":"U","NORAD_CAT_ID":63172,"ELEMENT_SET_NO":999,"REV_AT_EPOCH":5999,"BSTAR":0.00020008206,"MEAN_MOTION_DOT":1.41e-6,"MEAN_MOTION_DDOT":0},{"OBJECT_NAME":"QIANFAN-87","OBJECT_ID":"2025-046Q","EPOCH":"2026-03-14T21:13:46.433280","MEAN_MOTION":13.51012714,"ECCENTRICITY":0.00103292,"INCLINATION":88.9742,"RA_OF_ASC_NODE":310.3745,"ARG_OF_PERICENTER":214.817,"MEAN_ANOMALY":145.2306,"EPHEMERIS_TYPE":0,"CLASSIFICATION_TYPE":"U","NORAD_CAT_ID":63173,"ELEMENT_SET_NO":999,"REV_AT_EPOCH":5992,"BSTAR":0.00019855794,"MEAN_MOTION_DOT":1.4e-6,"MEAN_MOTION_DDOT":0},{"OBJECT_NAME":"QIANFAN-88","OBJECT_ID":"2025-046R","EPOCH":"2026-03-14T21:37:23.631744","MEAN_MOTION":13.51000885,"ECCENTRICITY":0.00105602,"INCLINATION":88.9745,"RA_OF_ASC_NODE":310.3297,"ARG_OF_PERICENTER":224.3487,"MEAN_ANOMALY":135.6819,"EPHEMERIS_TYPE":0,"CLASSIFICATION_TYPE":"U","NORAD_CAT_ID":63174,"ELEMENT_SET_NO":999,"REV_AT_EPOCH":5995,"BSTAR":0.00021476561,"MEAN_MOTION_DOT":1.51e-6,"MEAN_MOTION_DDOT":0},{"OBJECT_NAME":"QIANFAN-89","OBJECT_ID":"2025-046S","EPOCH":"2026-03-14T22:30:50.949216","MEAN_MOTION":13.51011403,"ECCENTRICITY":0.00152162,"INCLINATION":88.9745,"RA_OF_ASC_NODE":310.515,"ARG_OF_PERICENTER":215.1273,"MEAN_ANOMALY":144.8876,"EPHEMERIS_TYPE":0,"CLASSIFICATION_TYPE":"U","NORAD_CAT_ID":63175,"ELEMENT_SET_NO":999,"REV_AT_EPOCH":5985,"BSTAR":0.00020870512,"MEAN_MOTION_DOT":1.47e-6,"MEAN_MOTION_DDOT":0},{"OBJECT_NAME":"QIANFAN-90","OBJECT_ID":"2025-046T","EPOCH":"2026-03-14T21:25:43.088448","MEAN_MOTION":13.51011697,"ECCENTRICITY":0.00121978,"INCLINATION":88.9745,"RA_OF_ASC_NODE":310.4921,"ARG_OF_PERICENTER":212.4942,"MEAN_ANOMALY":147.546,"EPHEMERIS_TYPE":0,"CLASSIFICATION_TYPE":"U","NORAD_CAT_ID":63176,"ELEMENT_SET_NO":999,"REV_AT_EPOCH":5986,"BSTAR":0.00024078312,"MEAN_MOTION_DOT":1.68e-6,"MEAN_MOTION_DDOT":0},{"OBJECT_NAME":"QIANFAN-91","OBJECT_ID":"2025-233A","EPOCH":"2026-03-14T22:12:36.942912","MEAN_MOTION":13.51005219,"ECCENTRICITY":0.0002088,"INCLINATION":88.9944,"RA_OF_ASC_NODE":52.7149,"ARG_OF_PERICENTER":91.069,"MEAN_ANOMALY":269.07,"EPHEMERIS_TYPE":0,"CLASSIFICATION_TYPE":"U","NORAD_CAT_ID":66033,"ELEMENT_SET_NO":999,"REV_AT_EPOCH":2045,"BSTAR":7.7201892e-5,"MEAN_MOTION_DOT":6.2e-7,"MEAN_MOTION_DDOT":0},{"OBJECT_NAME":"QIANFAN-92","OBJECT_ID":"2025-233B","EPOCH":"2026-03-14T22:24:21.762144","MEAN_MOTION":13.51006422,"ECCENTRICITY":0.00019988,"INCLINATION":88.9928,"RA_OF_ASC_NODE":52.7012,"ARG_OF_PERICENTER":85.3758,"MEAN_ANOMALY":274.7622,"EPHEMERIS_TYPE":0,"CLASSIFICATION_TYPE":"U","NORAD_CAT_ID":66034,"ELEMENT_SET_NO":999,"REV_AT_EPOCH":2045,"BSTAR":6.0704683e-5,"MEAN_MOTION_DOT":5.1e-7,"MEAN_MOTION_DDOT":0},{"OBJECT_NAME":"QIANFAN-93","OBJECT_ID":"2025-233C","EPOCH":"2026-03-14T22:36:13.624704","MEAN_MOTION":13.51005665,"ECCENTRICITY":0.00020435,"INCLINATION":88.9955,"RA_OF_ASC_NODE":52.7267,"ARG_OF_PERICENTER":89.7036,"MEAN_ANOMALY":270.435,"EPHEMERIS_TYPE":0,"CLASSIFICATION_TYPE":"U","NORAD_CAT_ID":66035,"ELEMENT_SET_NO":999,"REV_AT_EPOCH":2045,"BSTAR":7.1282491e-5,"MEAN_MOTION_DOT":5.8e-7,"MEAN_MOTION_DDOT":0},{"OBJECT_NAME":"QIANFAN-94","OBJECT_ID":"2025-233D","EPOCH":"2026-03-14T22:18:21.179520","MEAN_MOTION":13.50992547,"ECCENTRICITY":0.00021281,"INCLINATION":88.9952,"RA_OF_ASC_NODE":52.6344,"ARG_OF_PERICENTER":85.9756,"MEAN_ANOMALY":274.1638,"EPHEMERIS_TYPE":0,"CLASSIFICATION_TYPE":"U","NORAD_CAT_ID":66036,"ELEMENT_SET_NO":999,"REV_AT_EPOCH":2050,"BSTAR":6.1646315e-5,"MEAN_MOTION_DOT":5.2e-7,"MEAN_MOTION_DDOT":0},{"OBJECT_NAME":"QIANFAN-95","OBJECT_ID":"2025-233E","EPOCH":"2026-03-14T22:30:00.525312","MEAN_MOTION":13.51016006,"ECCENTRICITY":0.00022192,"INCLINATION":88.9949,"RA_OF_ASC_NODE":52.1797,"ARG_OF_PERICENTER":90.293,"MEAN_ANOMALY":269.8475,"EPHEMERIS_TYPE":0,"CLASSIFICATION_TYPE":"U","NORAD_CAT_ID":66037,"ELEMENT_SET_NO":999,"REV_AT_EPOCH":2075,"BSTAR":7.1576337e-5,"MEAN_MOTION_DOT":5.8e-7,"MEAN_MOTION_DDOT":0},{"OBJECT_NAME":"QIANFAN-96","OBJECT_ID":"2025-233F","EPOCH":"2026-03-14T21:19:16.162464","MEAN_MOTION":13.51005337,"ECCENTRICITY":0.00021251,"INCLINATION":88.9946,"RA_OF_ASC_NODE":52.7303,"ARG_OF_PERICENTER":92.8328,"MEAN_ANOMALY":267.3066,"EPHEMERIS_TYPE":0,"CLASSIFICATION_TYPE":"U","NORAD_CAT_ID":66038,"ELEMENT_SET_NO":999,"REV_AT_EPOCH":2044,"BSTAR":7.9204801e-5,"MEAN_MOTION_DOT":6.3e-7,"MEAN_MOTION_DDOT":0},{"OBJECT_NAME":"QIANFAN-97","OBJECT_ID":"2025-233G","EPOCH":"2026-03-14T22:42:12.341952","MEAN_MOTION":13.51004743,"ECCENTRICITY":0.00020805,"INCLINATION":88.995,"RA_OF_ASC_NODE":52.7054,"ARG_OF_PERICENTER":90.7007,"MEAN_ANOMALY":269.4383,"EPHEMERIS_TYPE":0,"CLASSIFICATION_TYPE":"U","NORAD_CAT_ID":66039,"ELEMENT_SET_NO":999,"REV_AT_EPOCH":2046,"BSTAR":6.5797815e-5,"MEAN_MOTION_DOT":5.4e-7,"MEAN_MOTION_DDOT":0},{"OBJECT_NAME":"QIANFAN-98","OBJECT_ID":"2025-233H","EPOCH":"2026-03-14T22:53:58.420032","MEAN_MOTION":13.51005399,"ECCENTRICITY":0.00024564,"INCLINATION":88.9939,"RA_OF_ASC_NODE":52.4458,"ARG_OF_PERICENTER":79.5889,"MEAN_ANOMALY":280.5539,"EPHEMERIS_TYPE":0,"CLASSIFICATION_TYPE":"U","NORAD_CAT_ID":66040,"ELEMENT_SET_NO":999,"REV_AT_EPOCH":2060,"BSTAR":7.2207355e-5,"MEAN_MOTION_DOT":5.9e-7,"MEAN_MOTION_DDOT":0},{"OBJECT_NAME":"QIANFAN-99","OBJECT_ID":"2025-233J","EPOCH":"2026-03-14T21:13:18.895008","MEAN_MOTION":13.51005481,"ECCENTRICITY":0.00023968,"INCLINATION":88.995,"RA_OF_ASC_NODE":52.7151,"ARG_OF_PERICENTER":84.1054,"MEAN_ANOMALY":276.037,"EPHEMERIS_TYPE":0,"CLASSIFICATION_TYPE":"U","NORAD_CAT_ID":66041,"ELEMENT_SET_NO":999,"REV_AT_EPOCH":2045,"BSTAR":7.7503532e-5,"MEAN_MOTION_DOT":6.2e-7,"MEAN_MOTION_DDOT":0},{"OBJECT_NAME":"QIANFAN-100","OBJECT_ID":"2025-233K","EPOCH":"2026-03-14T22:48:03.981312","MEAN_MOTION":13.51006378,"ECCENTRICITY":0.0002051,"INCLINATION":88.9962,"RA_OF_ASC_NODE":52.625,"ARG_OF_PERICENTER":90.4099,"MEAN_ANOMALY":269.7287,"EPHEMERIS_TYPE":0,"CLASSIFICATION_TYPE":"U","NORAD_CAT_ID":66042,"ELEMENT_SET_NO":999,"REV_AT_EPOCH":2051,"BSTAR":5.9591984e-5,"MEAN_MOTION_DOT":5.0e-7,"MEAN_MOTION_DDOT":0},{"OBJECT_NAME":"QIANFAN-101","OBJECT_ID":"2025-233L","EPOCH":"2026-03-14T21:29:41.659584","MEAN_MOTION":14.26747047,"ECCENTRICITY":0.00173179,"INCLINATION":88.9951,"RA_OF_ASC_NODE":51.3837,"ARG_OF_PERICENTER":92.3755,"MEAN_ANOMALY":267.9422,"EPHEMERIS_TYPE":0,"CLASSIFICATION_TYPE":"U","NORAD_CAT_ID":66043,"ELEMENT_SET_NO":999,"REV_AT_EPOCH":2118,"BSTAR":0.00025661181,"MEAN_MOTION_DOT":6.36e-6,"MEAN_MOTION_DDOT":0},{"OBJECT_NAME":"QIANFAN-102","OBJECT_ID":"2025-233M","EPOCH":"2026-03-14T21:30:59.005728","MEAN_MOTION":13.50993274,"ECCENTRICITY":0.0002178,"INCLINATION":88.9948,"RA_OF_ASC_NODE":52.6258,"ARG_OF_PERICENTER":86.1446,"MEAN_ANOMALY":273.9954,"EPHEMERIS_TYPE":0,"CLASSIFICATION_TYPE":"U","NORAD_CAT_ID":66044,"ELEMENT_SET_NO":999,"REV_AT_EPOCH":2050,"BSTAR":8.9156066e-5,"MEAN_MOTION_DOT":7.0e-7,"MEAN_MOTION_DDOT":0}]
